[{"OBJECT_NAME":"NINGXIA-1 8","OBJECT_ID":"2021-064C","EPOCH":"2026-03-09T22:43:09.880896","MEAN_MOTION":14.08520885,"ECCENTRICITY":0.00068596,"INCLINATION":44.9956,"RA_OF_ASC_NODE":314.4246,"ARG_OF_PERICENTER":130.9681,"MEAN_ANOMALY":229.175,"EPHEMERIS_TYPE":0,"CLASSIFICATION_TYPE":"U","NORAD_CAT_ID":49020,"ELEMENT_SET_NO":999,"REV_AT_EPOCH":24023,"BSTAR":0.0001794062,"MEAN_MOTION_DOT":1.78e-6,"MEAN_MOTION_DDOT":0},{"OBJECT_NAME":"FENGYUN 1C DEB","OBJECT_ID":"1999-025EM","EPOCH":"2026-03-09T13:06:31.671360","MEAN_MOTION":14.28755581,"ECCENTRICITY":0.01925072,"INCLINATION":99.0359,"RA_OF_ASC_NODE":275.0472,"ARG_OF_PERICENTER":39.4587,"MEAN_ANOMALY":15.0208,"EPHEMERIS_TYPE":0,"CLASSIFICATION_TYPE":"U","NORAD_CAT_ID":29843,"ELEMENT_SET_NO":999,"REV_AT_EPOCH":99521,"BSTAR":0.00033618046,"MEAN_MOTION_DOT":9.81e-6,"MEAN_MOTION_DDOT":0}]
